{"type": "FeatureCollection", "features": [ {"type": "Feature", "properties": {"norad_id": 37867, "name": "COSMOS 2476 (744)", "group": "gnss", "lat": -53.08490663267434, "lon": -62.70607259385738, "alt_km": 19074.977076617968, "timestamp": "2025-12-09T05:43:20.966741+00:00", "meta": {"OBJECT_NAME": "COSMOS 2476 (744)", "OBJECT_ID": "2011-064A", "EPOCH": "2025-12-08T12:40:16.683168", "MEAN_MOTION": 2.131013, "ECCENTRICITY": 0.00241182, "INCLINATION": 65.16, "RA_OF_ASC_NODE": 79.314, "ARG_OF_PERICENTER": 233.9995, "MEAN_ANOMALY": 182.6426, "EPHEMERIS_TYPE": 0, "CLASSIFICATION_TYPE": "U", "NORAD_CAT_ID": 37867, "ELEMENT_SET_NO": 999, "REV_AT_EPOCH": 10970, "BSTAR": 0, "MEAN_MOTION_DOT": -1.2e-07, "MEAN_MOTION_DDOT": 0}, "tle": {"line1": "1 37867U 11064A   25342.52797087 -.00000012  00000+0  00000+0 0  9996", "line2": "2 37867  65.1600  79.3140 0024118 233.9995 182.6426  2.13101300109708"}}, "geometry": {"type": "Point", "coordinates": [-62.70607259385738, -53.08490663267434]}}, {"type": "Feature", "properties": {"norad_id": 37868, "name": "COSMOS 2477 (745)", "group": "gnss", "lat": 53.6680479859915, "lon": 118.3259434738052, "alt_km": 19177.313292537212, "timestamp": "2025-12-09T05:43:20.966753+00:00", "meta": {"OBJECT_NAME": "COSMOS 2477 (745)", "OBJECT_ID": "2011-064B", "EPOCH": "2025-12-08T06:12:22.664160", "MEAN_MOTION": 2.13102704, "ECCENTRICITY": 0.0021182, "INCLINATION": 65.1663, "RA_OF_ASC_NODE": 79.4007, "ARG_OF_PERICENTER": 234.576, "MEAN_ANOMALY": 156.3219, "EPHEMERIS_TYPE": 0, "CLASSIFICATION_TYPE": "U", "NORAD_CAT_ID": 37868, "ELEMENT_SET_NO": 999, "REV_AT_EPOCH": 10969, "BSTAR": 0, "MEAN_MOTION_DOT": -1.1e-07, "MEAN_MOTION_DDOT": 0}, "tle": {"line1": "1 37868U 11064B   25342.25859565 -.00000011  00000+0  00000+0 0  9996", "line2": "2 37868  65.1663  79.4007 0021182 234.5760 156.3219  2.13102704109691"}}, "geometry": {"type": "Point", "coordinates": [118.3259434738052, 53.6680479859915]}}, {"type": "Feature", "properties": {"norad_id": 37869, "name": "COSMOS 2475 (743)", "group": "gnss", "lat": 16.989467538247446, "lon": 87.51191225996699, "alt_km": 19171.42169807136, "timestamp": "2025-12-09T05:43:20.966766+00:00", "meta": {"OBJECT_NAME": "COSMOS 2475 (743)", "OBJECT_ID": "2011-064C", "EPOCH": "2025-12-08T07:57:01.791072", "MEAN_MOTION": 2.13101382, "ECCENTRICITY": 0.00262509, "INCLINATION": 65.1734, "RA_OF_ASC_NODE": 79.4181, "ARG_OF_PERICENTER": 248.5935, "MEAN_ANOMALY": 154.0263, "EPHEMERIS_TYPE": 0, "CLASSIFICATION_TYPE": "U", "NORAD_CAT_ID": 37869, "ELEMENT_SET_NO": 999, "REV_AT_EPOCH": 10970, "BSTAR": 0, "MEAN_MOTION_DOT": -1.1e-07, "MEAN_MOTION_DDOT": 0}, "tle": {"line1": "1 37869U 11064C   25342.33127073 -.00000011  00000+0  00000+0 0  9998", "line2": "2 37869  65.1734  79.4181 0026250 248.5935 154.0263  2.13101382109701"}}, "geometry": {"type": "Point", "coordinates": [87.51191225996699, 16.989467538247446]}}, {"type": "Feature", "properties": {"norad_id": 37948, "name": "BEIDOU-2 IGSO-5 (C10)", "group": "gnss", "lat": -11.831867500052782, "lon": -96.96887585762356, "alt_km": 36024.73502585204, "timestamp": "2025-12-09T05:43:20.966778+00:00", "meta": {"OBJECT_NAME": "BEIDOU-2 IGSO-5 (C10)", "OBJECT_ID": "2011-073A", "EPOCH": "2025-12-07T19:12:14.882400", "MEAN_MOTION": 1.00291658, "ECCENTRICITY": 0.01104068, "INCLINATION": 48.0298, "RA_OF_ASC_NODE": 273.9181, "ARG_OF_PERICENTER": 222.1784, "MEAN_ANOMALY": 321.4594, "EPHEMERIS_TYPE": 0, "CLASSIFICATION_TYPE": "U", "NORAD_CAT_ID": 37948, "ELEMENT_SET_NO": 999, "REV_AT_EPOCH": 5121, "BSTAR": 0, "MEAN_MOTION_DOT": -1.91e-06, "MEAN_MOTION_DDOT": 0}, "tle": {"line1": "1 37948U 11073A   25341.80017225 -.00000191  00000+0  00000+0 0  9993", "line2": "2 37948  48.0298 273.9181 0110406 222.1784 321.4594  1.00291658 51212"}}, "geometry": {"type": "Point", "coordinates": [-96.96887585762356, -11.831867500052782]}}, {"type": "Feature", "properties": {"norad_id": 37951, "name": "LUCH 5A (SDCM/PRN 140)", "group": "gnss", "lat": -7.9801849218653835, "lon": -28.98189065179896, "alt_km": 35780.63718805871, "timestamp": "2025-12-09T05:43:20.966790+00:00", "meta": {"OBJECT_NAME": "LUCH 5A (SDCM/PRN 140)", "OBJECT_ID": "2011-074B", "EPOCH": "2025-12-08T14:23:47.688864", "MEAN_MOTION": 1.00274097, "ECCENTRICITY": 0.0005787, "INCLINATION": 8.2694, "RA_OF_ASC_NODE": 76.6453, "ARG_OF_PERICENTER": 178.2122, "MEAN_ANOMALY": 205.7197, "EPHEMERIS_TYPE": 0, "CLASSIFICATION_TYPE": "U", "NORAD_CAT_ID": 37951, "ELEMENT_SET_NO": 999, "REV_AT_EPOCH": 5114, "BSTAR": 0, "MEAN_MOTION_DOT": -4.9e-07, "MEAN_MOTION_DDOT": 0}, "tle": {"line1": "1 37951U 11074B   25342.59985751 -.00000049  00000+0  00000+0 0  9995", "line2": "2 37951   8.2694  76.6453 0005787 178.2122 205.7197  1.00274097 51149"}}, "geometry": {"type": "Point", "coordinates": [-28.98189065179896, -7.9801849218653835]}}, {"type": "Feature", "properties": {"norad_id": 38091, "name": "BEIDOU-2 G5 (C05)", "group": "gnss", "lat": 1.439638001049304, "lon": -137.2882125320196, "alt_km": 35770.49731120767, "timestamp": "2025-12-09T05:43:20.966812+00:00", "meta": {"OBJECT_NAME": "BEIDOU-2 G5 (C05)", "OBJECT_ID": "2012-008A", "EPOCH": "2025-12-08T20:43:57.379584", "MEAN_MOTION": 1.00274009, "ECCENTRICITY": 0.0012521, "INCLINATION": 3.0991, "RA_OF_ASC_NODE": 70.7118, "ARG_OF_PERICENTER": 226.0714, "MEAN_ANOMALY": 150.8104, "EPHEMERIS_TYPE": 0, "CLASSIFICATION_TYPE": "U", "NORAD_CAT_ID": 38091, "ELEMENT_SET_NO": 999, "REV_AT_EPOCH": 5046, "BSTAR": 0, "MEAN_MOTION_DOT": 5.8e-07, "MEAN_MOTION_DDOT": 0}, "tle": {"line1": "1 38091U 12008A   25342.86385856  .00000058  00000+0  00000+0 0  9998", "line2": "2 38091   3.0991  70.7118 0012521 226.0714 150.8104  1.00274009 50469"}}, "geometry": {"type": "Point", "coordinates": [-137.2882125320196, 1.439638001049304]}}, {"type": "Feature", "properties": {"norad_id": 38250, "name": "BEIDOU-2 M3 (C11)", "group": "gnss", "lat": 55.90711033548856, "lon": 39.32686894175259, "alt_km": 21589.542210386677, "timestamp": "2025-12-09T05:43:20.966828+00:00", "meta": {"OBJECT_NAME": "BEIDOU-2 M3 (C11)", "OBJECT_ID": "2012-018A", "EPOCH": "2025-12-08T13:38:39.271776", "MEAN_MOTION": 1.86229758, "ECCENTRICITY": 0.0024371, "INCLINATION": 55.9237, "RA_OF_ASC_NODE": 311.2977, "ARG_OF_PERICENTER": 274.148, "MEAN_ANOMALY": 85.5607, "EPHEMERIS_TYPE": 0, "CLASSIFICATION_TYPE": "U", "NORAD_CAT_ID": 38250, "ELEMENT_SET_NO": 999, "REV_AT_EPOCH": 9239, "BSTAR": 0, "MEAN_MOTION_DOT": -7.3e-07, "MEAN_MOTION_DDOT": 0}, "tle": {"line1": "1 38250U 12018A   25342.56851009 -.00000073  00000+0  00000+0 0  9999", "line2": "2 38250  55.9237 311.2977 0024371 274.1480  85.5607  1.86229758 92396"}}, "geometry": {"type": "Point", "coordinates": [39.32686894175259, 55.90711033548856]}}, {"type": "Feature", "properties": {"norad_id": 38251, "name": "BEIDOU-2 M4 (C12)", "group": "gnss", "lat": 36.18966056598637, "lon": 100.70057189041046, "alt_km": 21558.48329810213, "timestamp": "2025-12-09T05:43:20.966840+00:00", "meta": {"OBJECT_NAME": "BEIDOU-2 M4 (C12)", "OBJECT_ID": "2012-018B", "EPOCH": "2025-12-08T12:00:48.229344", "MEAN_MOTION": 1.86229448, "ECCENTRICITY": 0.0015516, "INCLINATION": 55.8253, "RA_OF_ASC_NODE": 310.5294, "ARG_OF_PERICENTER": 277.5058, "MEAN_ANOMALY": 82.3051, "EPHEMERIS_TYPE": 0, "CLASSIFICATION_TYPE": "U", "NORAD_CAT_ID": 38251, "ELEMENT_SET_NO": 999, "REV_AT_EPOCH": 9239, "BSTAR": 0, "MEAN_MOTION_DOT": -7.3e-07, "MEAN_MOTION_DDOT": 0}, "tle": {"line1": "1 38251U 12018B   25342.50055821 -.00000073  00000+0  00000+0 0  9992", "line2": "2 38251  55.8253 310.5294 0015516 277.5058  82.3051  1.86229448 92391"}}, "geometry": {"type": "Point", "coordinates": [100.70057189041046, 36.18966056598637]}}, {"type": "Feature", "properties": {"norad_id": 38652, "name": "SES-5 (EGNOS/PRN 136)", "group": "gnss", "lat": -0.04397247059421513, "lon": 169.02000415383748, "alt_km": 35785.38334100156, "timestamp": "2025-12-09T05:43:20.966869+00:00", "meta": {"OBJECT_NAME": "SES-5 (EGNOS/PRN 136)", "OBJECT_ID": "2012-036A", "EPOCH": "2025-12-08T15:20:19.777056", "MEAN_MOTION": 1.00270941, "ECCENTRICITY": 0.00022, "INCLINATION": 0.0584, "RA_OF_ASC_NODE": 304.5652, "ARG_OF_PERICENTER": 308.8412, "MEAN_ANOMALY": 59.2985, "EPHEMERIS_TYPE": 0, "CLASSIFICATION_TYPE": "U", "NORAD_CAT_ID": 38652, "ELEMENT_SET_NO": 999, "REV_AT_EPOCH": 4255, "BSTAR": 0, "MEAN_MOTION_DOT": 3.6e-07, "MEAN_MOTION_DDOT": 0}, "tle": {"line1": "1 38652U 12036A   25342.63911779  .00000036  00000+0  00000+0 0  9992", "line2": "2 38652   0.0584 304.5652 0002200 308.8412  59.2985  1.00270941 42556"}}, "geometry": {"type": "Point", "coordinates": [169.02000415383748, -0.04397247059421513]}}, {"type": "Feature", "properties": {"norad_id": 38775, "name": "BEIDOU-2 M6 (C14)", "group": "gnss", "lat": -25.84374215706462, "lon": 50.41805063933972, "alt_km": 21502.03922663803, "timestamp": "2025-12-09T05:43:20.966882+00:00", "meta": {"OBJECT_NAME": "BEIDOU-2 M6 (C14)", "OBJECT_ID": "2012-050B", "EPOCH": "2025-12-08T05:04:33.479040", "MEAN_MOTION": 1.86230723, "ECCENTRICITY": 0.00110356, "INCLINATION": 56.3747, "RA_OF_ASC_NODE": 69.2178, "ARG_OF_PERICENTER": 345.3738, "MEAN_ANOMALY": 14.6151, "EPHEMERIS_TYPE": 0, "CLASSIFICATION_TYPE": "U", "NORAD_CAT_ID": 38775, "ELEMENT_SET_NO": 999, "REV_AT_EPOCH": 8975, "BSTAR": 0, "MEAN_MOTION_DOT": -4.4e-07, "MEAN_MOTION_DDOT": 0}, "tle": {"line1": "1 38775U 12050B   25342.21149860 -.00000044  00000+0  00000+0 0  9992", "line2": "2 38775  56.3747  69.2178 0011035 345.3738  14.6151  1.86230723 89759"}}, "geometry": {"type": "Point", "coordinates": [50.41805063933972, -25.84374215706462]}}]}